BEIDOU-3 G4             
1 56564U 23066A   23166.10327005 -.00000106  00000+0  00000+0 0  9995
2 56564   3.0426 289.2772 0006780 188.2018 342.8444  1.00272051   398
CZ-3B R/B               
1 56565U 23066B   23165.57239771  .00096474  46864-6  17967-2 0  9998
2 56565  28.2846 262.7454 7207138 197.4681 110.9601  2.42431968   695
STARLINK-30122          
1 56688U 23067A   23166.16667824 -.00026613  00000+0 -75225-3 0  9992
2 56688  43.0015 307.8864 0000988 295.4596 108.1516 15.35385082  4511
STARLINK-30129          
1 56689U 23067B   23166.16667824 -.02103145  00000+0 -74876-1 0  9990
2 56689  43.0000 307.8905 0001632 271.5950 130.2610 15.31655486  4513
STARLINK-30124          
1 56690U 23067C   23166.16667824 -.02095497  00000+0 -73055-1 0  9990
2 56690  43.0001 307.8672 0001560 278.9596 132.6360 15.32307001  4510
STARLINK-30087          
1 56691U 23067D   23166.16667824 -.02102201  00000+0 -10645+0 0  9997
2 56691  43.0009 308.4107 0000916 266.3295 279.4818 15.20094605  4518
STARLINK-30036          
1 56692U 23067E   23166.16667824 -.02101609  00000+0 -10438+0 0  9999
2 56692  43.0009 308.3741 0000870 266.3740 295.1991 15.20750312  4517
STARLINK-30067          
1 56693U 23067F   23166.16667824 -.02103935  00000+0 -10052+0 0  9996
2 56693  43.0009 308.3004 0000633 258.6156 333.4536 15.22064250  4514
STARLINK-30126          
1 56694U 23067G   23166.16667824 -.02100989  00000+0 -10233+0 0  9994
2 56694  43.0009 308.3358 0001367 258.1226 318.8691 15.21405610  4512
STARLINK-30121          
1 56695U 23067H   23166.16667824 -.02700022  00000+0 -12581+0 0  9997
2 56695  43.0009 308.2636 0001109 252.0691 355.2078 15.23243710  4511
STARLINK-30118          
1 56696U 23067J   23165.75301504  .00284422  40211-4  65425-3 0  9991
2 56696  42.9998 304.6715 0008912 349.0680  11.0002 15.96439969  5102
STARLINK-30130          
1 56697U 23067K   23166.16667824 -.02105814  00000+0 -82425-1 0  9993
2 56697  43.0000 307.9810 0001441 275.5435  88.4948 15.28628798  4518
STARLINK-30068          
1 56698U 23067L   23165.91667824 -.01667771  00000+0 -12291-1 0  9994
2 56698  43.0005 306.8060 0002044 291.1140 110.0416 15.74966158  1308
STARLINK-30127          
1 56699U 23067M   23166.16667824 -.02099563  00000+0 -96414-1 0  9991
2 56699  43.0008 308.2303 0001662 243.4622  17.7353 15.23374603  4519
STARLINK-30053          
1 56700U 23067N   23166.16667824 -.02102290  00000+0 -94680-1 0  9999
2 56700  43.0006 308.1958 0000909 258.3862  16.8648 15.24032297  4517
STARLINK-30125          
1 56701U 23067P   23166.16667824 -.02107120  00000+0 -93063-1 0  9991
2 56701  43.0004 308.1703 0000592 251.8762  37.0857 15.24690077  4512
STARLINK-30117          
1 56702U 23067Q   23165.81718217  .00052151  00000+0  95048-3 0  9992
2 56702  43.0009 309.6675 0003377 301.1790  58.8738 15.48674385  4469
STARLINK-30132          
1 56703U 23067R   23166.16667824 -.02077028  00000+0 -88030-1 0  9994
2 56703  43.0001 308.1004 0002147 254.7257  60.6352 15.25983407  4519
STARLINK-30066          
1 56704U 23067S   23166.16667824 -.02102343  00000+0 -79004-1 0  9995
2 56704  43.0000 307.9273 0000820 255.9896 130.3422 15.29938192  4510
STARLINK-30080          
1 56705U 23067T   23166.16667824 -.00605557  00000+0 -82638-2 0  9997
2 56705  43.0004 305.9759 0002173 272.5100 189.6520 15.58652208  4539
STARLINK-30079          
1 56706U 23067U   23166.16667824 -.02100408  00000+0 -85600-1 0  9996
2 56706  43.0000 308.0391 0001256 265.2842  75.0974 15.27312007  4510
STARLINK-30070          
1 56707U 23067V   23166.16667824 -.02102642  00000+0 -87433-1 0  9995
2 56707  43.0002 308.0686 0001514 263.0747  64.9637 15.26657306  4513
STARLINK-30071          
1 56708U 23067W   23166.16667824 -.02112786  00000+0 -81056-1 0  9991
2 56708  42.9999 307.9545 0001249 274.8819 100.4730 15.29288480  4510
STARLINK-30085          
1 56709U 23067X   23166.16667824 -.02108540  00000+0 -84235-1 0  9997
2 56709  43.0000 308.0093 0001242 262.6418  89.7380 15.27973913  4519
ONEWEB-0561             
1 56710U 23068A   23165.91667824 -.01005397  00000+0 -36225+0 0  9991
2 56710  87.0332 130.4554 0013704 128.2675 223.6010 14.37035543  1305
ONEWEB-0668             
1 56711U 23068B   23165.91667824 -.00004554  00000+0 -63338-3 0  9994
2 56711  86.7228 129.7950 0017229 128.7804 334.9768 14.78090393  1307
ONEWEB-0676             
1 56712U 23068C   23166.16667824  .00003623  00000+0  49823-3 0  9990
2 56712  86.7184 129.6831 0017110 129.5143 203.1609 14.77957025  4633
ONEWEB-0677             
1 56713U 23068D   23165.68165342 -.00021633  00000+0 -55521-2 0  9999
2 56713  86.8990 130.4129 0012981 121.5386 238.7089 14.50509681  3831
ONEWEB-0678             
1 56714U 23068E   23166.16667824  .00003171  00000+0  44346-3 0  9995
2 56714  86.7186 129.7049 0013060 127.7126 124.7151 14.77245432  4632
ONEWEB-0679             
1 56715U 23068F   23165.91667824 -.00004699  00000+0 -65288-3 0  9994
2 56715  86.7223 129.7932 0017385 129.2748 339.9285 14.78123209  1304
ONEWEB-0680             
1 56716U 23068G   23165.91667824 -.00004158  00000+0 -58343-3 0  9999
2 56716  86.7205 129.7894 0016384 130.9597 305.7656 14.77740992  1307
ONEWEB-0681             
1 56717U 23068H   23165.91667824 -.00004315  00000+0 -61053-3 0  9997
2 56717  86.7210 129.8045 0014365 131.9691 261.9101 14.77397630  1301
ONEWEB-0682             
1 56718U 23068J   23165.91667824 -.00004491  00000+0 -63990-3 0  9995
2 56718  86.7212 129.8076 0013830 131.7399 254.5265 14.77090738  1305
ONEWEB-0683             
1 56719U 23068K   23165.91667824 -.00004674  00000+0 -66604-3 0  9994
2 56719  86.7209 129.8093 0013739 130.7662 247.4221 14.77085306  1309
ONEWEB-0684             
1 56720U 23068L   23166.16667824  .00003112  00000+0  43696-3 0  9994
2 56720  86.7210 129.7058 0013050 127.7546 126.3098 14.77076637  4639
ONEWEB-0686             
1 56721U 23068M   23165.91667824 -.00004389  00000+0 -61423-3 0  9994
2 56721  86.7199 129.7835 0017002 129.9718 324.7820 14.77836997  1306
ONEWEB-0694             
1 56722U 23068N   23165.91667824 -.00004208  00000+0 -58954-3 0  9990
2 56722  86.7239 129.7998 0016809 129.7621 319.3576 14.77803983  1304
ONEWEB-0696             
1 56723U 23068P   23165.91667824 -.00004898  00000+0 -69958-3 0  9992
2 56723  86.7203 129.8114 0013376 129.5595 238.7996 14.76973402  1304
ONEWEB-0703             
1 56724U 23068Q   23165.91667824 -.00004760  00000+0 -67841-3 0  9990
2 56724  86.7203 129.8067 0013512 130.4457 243.4902 14.77069868  1305
ONEWEB-0721             
1 56725U 23068R   23165.83722545  .00002135  00000+0  26116-3 0  9996
2 56725  86.6776 129.8123 0012868 128.4410 231.7970 14.82700560  3890
IRIDIUM 181             
1 56726U 23068S   23166.14034888  .00001425  00000+0  18348-3 0  9997
2 56726  86.6765 129.7174 0003276 111.9316 248.2254 14.80378802  3930
IRIDIUM 177             
1 56727U 23068T   23165.86437471  .00001440  00000+0  18566-3 0  9990
2 56727  86.6755 129.8230 0002806 106.5815 253.5715 14.80333614  3894
IRIDIUM 174             
1 56728U 23068U   23165.99414331  .00001450  00000+0  18695-3 0  9999
2 56728  86.6808 129.7815 0002803 104.9415 255.2117 14.80333736  3910
IRIDIUM 178             
1 56729U 23068V   23165.65075370  .00001457  00000+0  18826-3 0  9992
2 56729  86.6752 129.9005 0002417 105.4037 254.7452 14.80260603  3861
IRIDIUM 179             
1 56730U 23068W   23165.84777880  .00001443  00000+0  18644-3 0  9993
2 56730  86.6793 129.8260 0002343 106.3574 253.7905 14.80238465  3890
2023-069A               
1 56731U 23069A   23166.11904251  .00005921  00000+0  20121-3 0  9998
2 56731  41.0047 215.5438 0032360 310.1853  49.6136 15.30440109  3798
2023-069B               
1 56732U 23069B   23166.11008644  .00012955  00000+0  42053-3 0  9993
2 56732  41.0042 215.4734 0030403 310.2786  49.5378 15.31260745  3798
2023-069C               
1 56733U 23069C   23166.10920013  .00006582  00000+0  21877-3 0  9996
2 56733  41.0044 215.4668 0029842 310.4048  49.4169 15.31102543  3793
CZ-2C R/B               
1 56734U 23069D   23165.85687582  .00019674  00000+0  36060-3 0  9995
2 56734  41.1969 213.9383 0053993 215.9126 143.8069 15.47195596  3793
CZ-2C DEB               
1 56735U 23069E   23165.26044499  .00041633  00000+0  27719-2 0  9995
2 56735  41.1425 229.0236 0209419 286.7399  71.0526 14.90210036  3570
CZ-2C DEB               
1 56736U 23069F   23165.86306172  .00059106  00000+0  22755-2 0  9990
2 56736  40.8541 219.7679 0117543 339.4587  20.1524 15.19234204  3730
CZ-2C DEB               
1 56737U 23069G   23166.06631059  .00076030  00000+0  26071-2 0  9999
2 56737  41.0956 217.7480 0111846 348.0078  11.8085 15.23373500  3730
2023-069H               
1 56738U 23069H   23166.10397392  .00035756  00000+0  23284-2 0  9997
2 56738  40.9044 224.1046 0201973 291.9240  66.0207 14.92014839  3702
PROGRESS-MS 23          
1 56740U 23071A   23165.47557068  .00010977  00000+0  19483-3 0  9995
2 56740  51.6399 341.9692 0005215  80.2130 279.9448 15.50748716401370
2023-072A               
1 56743U 23072A   23166.08307540  .00003630  00000+0  24491-3 0  9998
2 56743  97.5419 352.9947 0007725 220.6935 139.3716 15.07231397  3112
SNIPE 4                 
1 56744U 23072B   23165.81671265  .00005011  00000+0  33568-3 0  9997
2 56744  97.5504 352.7585 0007734 222.8225 137.2401 15.07320113  3078
SNIPE 2                 
1 56745U 23072C   23166.08044812  .00005543  00000+0  36942-3 0  9999
2 56745  97.5513 353.0234 0008048 225.6441 134.4128 15.07457617  3114
2023-072D               
1 56746U 23072D   23166.07836780  .00006265  00000+0  41507-3 0  9997
2 56746  97.5514 353.0261 0008363 229.4699 130.5801 15.07625190  3111
2023-072E               
1 56747U 23072E   23166.07640714  .00005350  00000+0  35382-3 0  9996
2 56747  97.5518 353.0286 0008820 232.5175 127.5252 15.07754544  3117
